STARLINK-32948          
1 63123U 25039V   25212.98780287  .00033224  00000+0  12106-2 0  9990
2 63123  43.0002 179.1561 0001612 266.4306  93.6361 15.27601992 25033
STARLINK-32957          
1 63124U 25039W   25212.93655208  .00017923  00000+0  65914-3 0  9994
2 63124  42.9972 179.6339 0000576 259.1678 100.9109 15.27584993 25005
STARLINK-11609 [DTC]    
1 63132U 25043A   25212.11973197  .00202929  00000+0  15400-2 0  9994
2 63132  43.0007 146.3853 0001929 248.5905 111.4757 15.70942608 24616
STARLINK-11604 [DTC]    
1 63133U 25043B   25213.15829203  .00257117  00000+0  19359-2 0  9994
2 63133  43.0028 140.4256 0004758 257.5089 102.5246 15.70955526 24660
STARLINK-11605 [DTC]    
1 63134U 25043C   25213.14237023  .00327880  00000+0  24510-2 0  9997
2 63134  43.0003 140.2970 0002988 270.5636  89.4889 15.70919504 24663
STARLINK-11610 [DTC]    
1 63135U 25043D   25213.21126566  .00222623  00000+0  16884-2 0  9999
2 63135  42.9995 139.9570 0001861 274.7501  85.3154 15.70895994 24676
STARLINK-11613 [DTC]    
1 63136U 25043E   25213.15297863  .00235283  00000+0  17757-2 0  9998
2 63136  43.0007 140.3817 0005583 249.0155 111.0115 15.70961060 24782
STARLINK-11616 [DTC]    
1 63137U 25043F   25213.16970222  .00287827  00000+0  21648-2 0  9992
2 63137  42.9988 139.6174 0002043 260.6568  99.4068 15.70895064 24798
STARLINK-11611 [DTC]    
1 63138U 25043G   25213.18472328  .00046005  00000+0  35964-3 0  9997
2 63138  43.0008 139.7373 0001060 292.8224  67.2532 15.70866496 24796
STARLINK-11628 [DTC]    
1 63139U 25043H   25213.19002547  .00117073  00000+0  90175-3 0  9990
2 63139  42.9995 139.7803 0002108 256.9782 103.0850 15.70874072 24793
STARLINK-11607 [DTC]    
1 63140U 25043J   25213.17409319  .00224127  00000+0  16902-2 0  9992
2 63140  43.0001 139.6513 0003040 269.7841  90.2678 15.71024603 24799
STARLINK-11522 [DTC]    
1 63141U 25043K   25213.17940965  .00202506  00000+0  15391-2 0  9998
2 63141  42.9980 139.6952 0001572 273.7970  86.2717 15.70908328 24611
STARLINK-11503 [DTC]    
1 63142U 25043L   25213.16348137  .00329546  00000+0  24690-2 0  9997
2 63142  42.9988 139.5658 0001822 267.0738  92.9921 15.70861652 24617
STARLINK-11579 [DTC]    
1 63143U 25043M   25212.53296500  .00324087  00000+0  24225-2 0  9993
2 63143  42.9997 143.4408 0000368  26.7749 333.3137 15.70931515 24573
STARLINK-11581 [DTC]    
1 63144U 25043N   25212.17800467  .00240757  00000+0  18228-2 0  9994
2 63144  43.0022 145.9542 0002438 276.0843  83.9747 15.70880394 24636
STARLINK-32949          
1 63145U 25043P   25213.17070924  .00035347  00000+0  12876-2 0  9993
2 63145  43.0019 181.8754 0001824 268.7369  91.3274 15.27585817 24201
STARLINK-32952          
1 63146U 25043Q   25212.94530737  .00015920  00000+0  58652-3 0  9999
2 63146  43.0002 189.6739 0000985 264.7379  95.3360 15.27594427 24158
STARLINK-32936          
1 63147U 25043R   25212.94788326  .00024831  00000+0  90853-3 0  9999
2 63147  42.9993 189.7142 0000690 253.9040 106.1736 15.27590833 24158
STARLINK-32937          
1 63148U 25043S   25212.62191818  .00030141  00000+0  11000-2 0  9996
2 63148  42.9978 184.6392 0000730 266.8265  93.2503 15.27590569 23557
STARLINK-32939          
1 63149U 25043T   25213.25002315  .00031563  00000+0  11525-2 0  9991
2 63149  42.9988 180.9601 0001287 279.4635 355.3744 15.27554480 24282
STARLINK-32919          
1 63150U 25043U   25213.14886328  .00023905  00000+0  87524-3 0  9999
2 63150  42.9989 181.7134 0001256 256.6249 103.4463 15.27585140 24310
STARLINK-32876          
1 63151U 25043V   25212.91928509  .00034002  00000+0  12381-2 0  9990
2 63151  42.9990 182.5654 0000994 258.7511 101.3228 15.27615754 23604
STARLINK-32915          
1 63152U 25043W   25213.01454625  .00026251  00000+0  95981-3 0  9991
2 63152  42.9969 189.3009 0001099 250.6957 109.3776 15.27589438 24158
STARLINK-11602 [DTC]    
1 63183U 25048A   25213.22125199  .00151217  00000+0  11579-2 0  9995
2 63183  43.0000 209.1289 0001833 276.3155  83.7504 15.70896112 23412
STARLINK-11617 [DTC]    
1 63184U 25048B   25212.38936273  .00244235  00000+0  18476-2 0  9991
2 63184  42.9992 214.0686 0001532 266.7542  93.3150 15.70890065 23714
STARLINK-11618 [DTC]    
1 63185U 25048C   25213.05692045  .00197748  00000+0  15007-2 0  9996
2 63185  42.9985 209.5952 0001875 238.6170 121.4514 15.70958730 23392
STARLINK-11646 [DTC]    
1 63186U 25048D   25213.04630371  .00255539  00000+0  19336-2 0  9992
2 63186  43.0006 209.5096 0003775 293.0090  67.0379 15.70845661 23397
STARLINK-11622 [DTC]    
1 63187U 25048E   25213.03581189  .00191439  00000+0  14546-2 0  9990
2 63187  42.9967 210.3189 0001339 169.3401 190.7495 15.70949825 23389
