OBJECT_NAME,OBJECT_ID,EPOCH,MEAN_MOTION,ECCENTRICITY,INCLINATION,RA_OF_ASC_NODE,ARG_OF_PERICENTER,MEAN_ANOMALY,EPHEMERIS_TYPE,CLASSIFICATION_TYPE,NORAD_CAT_ID,ELEMENT_SET_NO,REV_AT_EPOCH,BSTAR,MEAN_MOTION_DOT,MEAN_MOTION_DDOT,sigma_x,sigma_y,sigma_z
STARLINK-32948,2025-039V,2025-07-31T23:42:26.167968,15.27601992,0.0001612,43.0002,179.1561,266.4306,93.6361,0,U,63123,999,2503,0.0012106,0.00033224,0.0,0.5,0.5,0.5
STARLINK-32957,2025-039W,2025-07-31T22:28:38.099712,15.27584993,5.76e-05,42.9972,179.6339,259.1678,100.9109,0,U,63124,999,2500,0.00065914,0.00017923,0.0,0.5,0.5,0.5
STARLINK-11609 [DTC],2025-043A,2025-07-31T02:52:24.842208,15.70942608,0.0001929,43.0007,146.3853,248.5905,111.4757,0,U,63132,999,2461,0.00154,0.00202929,0.0,0.5,0.5,0.5
STARLINK-11604 [DTC],2025-043B,2025-08-01T03:47:56.431392,15.70955526,0.0004758,43.0028,140.4256,257.5089,102.5246,0,U,63133,999,2466,0.0019359,0.00257117,0.0,0.5,0.5,0.5
STARLINK-11605 [DTC],2025-043C,2025-08-01T03:25:00.787872,15.70919504,0.0002988,43.0003,140.297,270.5636,89.4889,0,U,63134,999,2466,0.002451,0.0032788,0.0,0.5,0.5,0.5
STARLINK-11610 [DTC],2025-043D,2025-08-01T05:04:13.353024,15.70895994,0.0001861,42.9995,139.957,274.7501,85.3154,0,U,63135,999,2467,0.0016884,0.00222623,0.0,0.5,0.5,0.5
STARLINK-11613 [DTC],2025-043E,2025-08-01T03:40:17.353632,15.7096106,0.0005583,43.0007,140.3817,249.0155,111.0115,0,U,63136,999,2478,0.0017757,0.00235283,0.0,0.5,0.5,0.5
STARLINK-11616 [DTC],2025-043F,2025-08-01T04:04:22.271808,15.70895064,0.0002043,42.9988,139.6174,260.6568,99.4068,0,U,63137,999,2479,0.0021648,0.00287827,0.0,0.5,0.5,0.5
STARLINK-11611 [DTC],2025-043G,2025-08-01T04:26:00.091392,15.70866496,0.000106,43.0008,139.7373,292.8224,67.2532,0,U,63138,999,2479,0.00035964,0.00046005,0.0,0.5,0.5,0.5
STARLINK-11628 [DTC],2025-043H,2025-08-01T04:33:38.200608,15.70874072,0.0002108,42.9995,139.7803,256.9782,103.085,0,U,63139,999,2479,0.00090175,0.00117073,0.0,0.5,0.5,0.5
STARLINK-11607 [DTC],2025-043J,2025-08-01T04:10:41.651616,15.71024603,0.000304,43.0001,139.6513,269.7841,90.2678,0,U,63140,999,2479,0.0016902,0.00224127,0.0,0.5,0.5,0.5
STARLINK-11522 [DTC],2025-043K,2025-08-01T04:18:20.993760,15.70908328,0.0001572,42.998,139.6952,273.797,86.2717,0,U,63141,999,2461,0.0015391,0.00202506,0.0,0.5,0.5,0.5
STARLINK-11503 [DTC],2025-043L,2025-08-01T03:55:24.790368,15.70861652,0.0001822,42.9988,139.5658,267.0738,92.9921,0,U,63142,999,2461,0.002469,0.00329546,0.0,0.5,0.5,0.5
STARLINK-11579 [DTC],2025-043M,2025-07-31T12:47:28.176000,15.70931515,3.68e-05,42.9997,143.4408,26.7749,333.3137,0,U,63143,999,2457,0.0024225,0.00324087,0.0,0.5,0.5,0.5
STARLINK-11581 [DTC],2025-043N,2025-07-31T04:16:19.603488,15.70880394,0.0002438,43.0022,145.9542,276.0843,83.9747,0,U,63144,999,2463,0.0018228,0.00240757,0.0,0.5,0.5,0.5
STARLINK-32949,2025-043P,2025-08-01T04:05:49.278336,15.27585817,0.0001824,43.0019,181.8754,268.7369,91.3274,0,U,63145,999,2420,0.0012876,0.00035347,0.0,0.5,0.5,0.5
STARLINK-32952,2025-043Q,2025-07-31T22:41:14.556768,15.27594427,9.85e-05,43.0002,189.6739,264.7379,95.336,0,U,63146,999,2415,0.00058652,0.0001592,0.0,0.5,0.5,0.5
STARLINK-32936,2025-043R,2025-07-31T22:44:57.113664,15.27590833,6.9e-05,42.9993,189.7142,253.904,106.1736,0,U,63147,999,2415,0.00090853,0.00024831,0.0,0.5,0.5,0.5
STARLINK-32937,2025-043S,2025-07-31T14:55:33.730752,15.27590569,7.3e-05,42.9978,184.6392,266.8265,93.2503,0,U,63148,999,2355,0.0011,0.00030141,0.0,0.5,0.5,0.5
STARLINK-32939,2025-043T,2025-08-01T06:00:02.000160,15.2755448,0.0001287,42.9988,180.9601,279.4635,355.3744,0,U,63149,999,2428,0.0011525,0.00031563,0.0,0.5,0.5,0.5
STARLINK-32919,2025-043U,2025-08-01T03:34:21.787392,15.2758514,0.0001256,42.9989,181.7134,256.6249,103.4463,0,U,63150,999,2431,0.00087524,0.00023905,0.0,0.5,0.5,0.5
STARLINK-32876,2025-043V,2025-07-31T22:03:46.231776,15.27615754,9.94e-05,42.999,182.5654,258.7511,101.3228,0,U,63151,999,2360,0.0012381,0.00034002,0.0,0.5,0.5,0.5
STARLINK-32915,2025-043W,2025-08-01T00:20:56.796000,15.27589438,0.0001099,42.9969,189.3009,250.6957,109.3776,0,U,63152,999,2415,0.00095981,0.00026251,0.0,0.5,0.5,0.5
STARLINK-11602 [DTC],2025-048A,2025-08-01T05:18:36.171936,15.70896112,0.0001833,43.0,209.1289,276.3155,83.7504,0,U,63183,999,2341,0.0011579,0.00151217,0.0,0.5,0.5,0.5
STARLINK-11617 [DTC],2025-048B,2025-07-31T09:20:40.939872,15.70890065,0.0001532,42.9992,214.0686,266.7542,93.315,0,U,63184,999,2371,0.0018476,0.00244235,0.0,0.5,0.5,0.5
STARLINK-11618 [DTC],2025-048C,2025-08-01T01:21:57.926880,15.7095873,0.0001875,42.9985,209.5952,238.617,121.4514,0,U,63185,999,2339,0.0015007,0.00197748,0.0,0.5,0.5,0.5
STARLINK-11646 [DTC],2025-048D,2025-08-01T01:06:40.640544,15.70845661,0.0003775,43.0006,209.5096,293.009,67.0379,0,U,63186,999,2339,0.0019336,0.00255539,0.0,0.5,0.5,0.5
STARLINK-11622 [DTC],2025-048E,2025-08-01T00:51:34.147296,15.70949825,0.0001339,42.9967,210.3189,169.3401,190.7495,0,U,63187,999,2338,0.0014546,0.00191439,0.0,0.5,0.5,0.5
